{
  "type": "FeatureCollection",
  "features": [
    {
      "type": "Feature",
      "properties": {
        "norad_id": 49336,
        "name": "QZS-1R (QZSS/PRN 196)",
        "group": "gnss",
        "lat": 36.45543628400672,
        "lon": 160.1743266709928,
        "alt_km": 38881.725500407265,
        "timestamp": "2025-12-05T20:43:02.301516+00:00",
        "meta_object_name": "QZS-1R (QZSS/PRN 196)",
        "meta_object_id": "2021-096A",
        "meta_epoch": "2025-12-01T04:08:48.475392",
        "meta_mean_motion": 1.0026089,
        "meta_eccentricity": 0.0753298,
        "meta_inclination": 37.0524,
        "meta_ra_of_asc_node": 82.5332,
        "meta_arg_of_pericenter": 271.0716,
        "meta_mean_anomaly": 274.2635,
        "meta_ephemeris_type": 0,
        "meta_classification_type": "U",
        "meta_norad_cat_id": 49336,
        "meta_element_set_no": 999,
        "meta_rev_at_epoch": 1502,
        "meta_bstar": 0,
        "meta_mean_motion_dot": -2.17e-06,
        "meta_mean_motion_ddot": 0,
        "tle_line1": "1 49336U 21096A   25335.17278328 -.00000217  00000+0  00000+0 0  9998",
        "tle_line2": "2 49336  37.0524  82.5332 0753298 271.0716 274.2635  1.00260890 15022"
      },
      "geometry": {
        "type": "Point",
        "coordinates": [
          160.1743266709928,
          36.45543628400672
        ]
      }
    },
    {
      "type": "Feature",
      "properties": {
        "norad_id": 49809,
        "name": "GSAT0223 (GALILEO 27)",
        "group": "gnss",
        "lat": -57.09324866707309,
        "lon": -97.9742974924275,
        "alt_km": 23215.086152483716,
        "timestamp": "2025-12-05T20:43:02.301535+00:00",
        "meta_object_name": "GSAT0223 (GALILEO 27)",
        "meta_object_id": "2021-116A",
        "meta_epoch": "2025-12-03T22:51:48.276576",
        "meta_mean_motion": 1.70475481,
        "meta_eccentricity": 0.00047656,
        "meta_inclination": 57.2213,
        "meta_ra_of_asc_node": 346.9508,
        "meta_arg_of_pericenter": 249.4566,
        "meta_mean_anomaly": 290.7436,
        "meta_ephemeris_type": 0,
        "meta_classification_type": "U",
        "meta_norad_cat_id": 49809,
        "meta_element_set_no": 999,
        "meta_rev_at_epoch": 2485,
        "meta_bstar": 0,
        "meta_mean_motion_dot": -6.9e-07,
        "meta_mean_motion_ddot": 0,
        "tle_line1": "1 49809U 21116A   25337.95264209 -.00000069  00000+0  00000+0 0  9992",
        "tle_line2": "2 49809  57.2213 346.9508 0004765 249.4566 290.7436  1.70475481 24852"
      },
      "geometry": {
        "type": "Point",
        "coordinates": [
          -97.9742974924275,
          -57.09324866707309
        ]
      }
    },
    {
      "type": "Feature",
      "properties": {
        "norad_id": 49810,
        "name": "GSAT0224 (GALILEO 28)",
        "group": "gnss",
        "lat": 21.105490343187313,
        "lon": 1.303441932417505,
        "alt_km": 23227.505259049467,
        "timestamp": "2025-12-05T20:43:02.301575+00:00",
        "meta_object_name": "GSAT0224 (GALILEO 28)",
        "meta_object_id": "2021-116B",
        "meta_epoch": "2025-12-04T15:38:46.077216",
        "meta_mean_motion": 1.70475512,
        "meta_eccentricity": 0.00040562,
        "meta_inclination": 57.2223,
        "meta_ra_of_asc_node": 346.9305,
        "meta_arg_of_pericenter": 253.8254,
        "meta_mean_anomaly": 108.1284,
        "meta_ephemeris_type": 0,
        "meta_classification_type": "U",
        "meta_norad_cat_id": 49810,
        "meta_element_set_no": 999,
        "meta_rev_at_epoch": 2489,
        "meta_bstar": 0,
        "meta_mean_motion_dot": -7.3e-07,
        "meta_mean_motion_ddot": 0,
        "tle_line1": "1 49810U 21116B   25338.65192219 -.00000073  00000+0  00000+0 0  9998",
        "tle_line2": "2 49810  57.2223 346.9305 0004056 253.8254 108.1284  1.70475512 24898"
      },
      "geometry": {
        "type": "Point",
        "coordinates": [
          1.303441932417505,
          21.105490343187313
        ]
      }
    },
    {
      "type": "Feature",
      "properties": {
        "norad_id": 52984,
        "name": "COSMOS 2557 (706K)",
        "group": "gnss",
        "lat": 57.21696245898461,
        "lon": 9.351291720286504,
        "alt_km": 19154.55885792839,
        "timestamp": "2025-12-05T20:43:02.301600+00:00",
        "meta_object_name": "COSMOS 2557 (706K)",
        "meta_object_id": "2022-075A",
        "meta_epoch": "2025-12-04T08:46:35.993568",
        "meta_mean_motion": 2.13101723,
        "meta_eccentricity": 0.0013727,
        "meta_inclination": 64.4144,
        "meta_ra_of_asc_node": 321.3461,
        "meta_arg_of_pericenter": 276.6628,
        "meta_mean_anomaly": 83.1807,
        "meta_ephemeris_type": 0,
        "meta_classification_type": "U",
        "meta_norad_cat_id": 52984,
        "meta_element_set_no": 999,
        "meta_rev_at_epoch": 2656,
        "meta_bstar": 0,
        "meta_mean_motion_dot": -4.7e-07,
        "meta_mean_motion_ddot": 0,
        "tle_line1": "1 52984U 22075A   25338.36569437 -.00000047  00000+0  00000+0 0  9998",
        "tle_line2": "2 52984  64.4144 321.3461 0013727 276.6628  83.1807  2.13101723 26566"
      },
      "geometry": {
        "type": "Point",
        "coordinates": [
          9.351291720286504,
          57.21696245898461
        ]
      }
    },
    {
      "type": "Feature",
      "properties": {
        "norad_id": 54031,
        "name": "COSMOS 2559 (707K)",
        "group": "gnss",
        "lat": -24.73403261054896,
        "lon": 154.138926124212,
        "alt_km": 19103.88018087659,
        "timestamp": "2025-12-05T20:43:02.301621+00:00",
        "meta_object_name": "COSMOS 2559 (707K)",
        "meta_object_id": "2022-130A",
        "meta_epoch": "2025-12-03T17:10:26.893920",
        "meta_mean_motion": 2.13101235,
        "meta_eccentricity": 0.00120262,
        "meta_inclination": 64.3873,
        "meta_ra_of_asc_node": 321.4588,
        "meta_arg_of_pericenter": 192.7508,
        "meta_mean_anomaly": 167.2215,
        "meta_ephemeris_type": 0,
        "meta_classification_type": "U",
        "meta_norad_cat_id": 54031,
        "meta_element_set_no": 999,
        "meta_rev_at_epoch": 2452,
        "meta_bstar": 0,
        "meta_mean_motion_dot": -4.4e-07,
        "meta_mean_motion_ddot": 0,
        "tle_line1": "1 54031U 22130A   25337.71558905 -.00000044  00000+0  00000+0 0  9998",
        "tle_line2": "2 54031  64.3873 321.4588 0012026 192.7508 167.2215  2.13101235 24525"
      },
      "geometry": {
        "type": "Point",
        "coordinates": [
          154.138926124212,
          -24.73403261054896
        ]
      }
    },
    {
      "type": "Feature",
      "properties": {
        "norad_id": 54377,
        "name": "COSMOS 2564 (761)",
        "group": "gnss",
        "lat": -29.415267594804774,
        "lon": -176.3087355646126,
        "alt_km": 19145.291790656596,
        "timestamp": "2025-12-05T20:43:02.301639+00:00",
        "meta_object_name": "COSMOS 2564 (761)",
        "meta_object_id": "2022-161A",
        "meta_epoch": "2025-12-03T13:26:12.799104",
        "meta_mean_motion": 2.13101952,
        "meta_eccentricity": 0.00087056,
        "meta_inclination": 64.7377,
        "meta_ra_of_asc_node": 199.204,
        "meta_arg_of_pericenter": 206.235,
        "meta_mean_anomaly": 153.818,
        "meta_ephemeris_type": 0,
        "meta_classification_type": "U",
        "meta_norad_cat_id": 54377,
        "meta_element_set_no": 999,
        "meta_rev_at_epoch": 2346,
        "meta_bstar": 0,
        "meta_mean_motion_dot": 1.05e-06,
        "meta_mean_motion_ddot": 0,
        "tle_line1": "1 54377U 22161A   25337.55987036  .00000105  00000+0  00000+0 0  9995",
        "tle_line2": "2 54377  64.7377 199.2040 0008705 206.2350 153.8180  2.13101952 23460"
      },
      "geometry": {
        "type": "Point",
        "coordinates": [
          -176.3087355646126,
          -29.415267594804774
        ]
      }
    },
    {
      "type": "Feature",
      "properties": {
        "norad_id": 55268,
        "name": "GPS BIII-6  (PRN 28)",
        "group": "gnss",
        "lat": -53.36043312688378,
        "lon": 45.97816242766819,
        "alt_km": 20190.36664012675,
        "timestamp": "2025-12-05T20:43:02.301657+00:00",
        "meta_object_name": "GPS BIII-6  (PRN 28)",
        "meta_object_id": "2023-009A",
        "meta_epoch": "2025-12-03T18:12:38.807136",
        "meta_mean_motion": 2.00556312,
        "meta_eccentricity": 0.00036355,
        "meta_inclination": 55.1062,
        "meta_ra_of_asc_node": 156.1984,
        "meta_arg_of_pericenter": 358.5946,
        "meta_mean_anomaly": 180.1179,
        "meta_ephemeris_type": 0,
        "meta_classification_type": "U",
        "meta_norad_cat_id": 55268,
        "meta_element_set_no": 999,
        "meta_rev_at_epoch": 2132,
        "meta_bstar": 0,
        "meta_mean_motion_dot": 9.9e-07,
        "meta_mean_motion_ddot": 0,
        "tle_line1": "1 55268U 23009A   25337.75878249  .00000099  00000+0  00000+0 0  9996",
        "tle_line2": "2 55268  55.1062 156.1984 0003635 358.5946 180.1179  2.00556312 21327"
      },
      "geometry": {
        "type": "Point",
        "coordinates": [
          45.97816242766819,
          -53.36043312688378
        ]
      }
    }
  ]
}